CCSDS_OMM_VERS = 2.0
CREATION_DATE  = 
ORIGINATOR     = 

OBJECT_NAME    = STARLINK-37057
OBJECT_ID      = 2026-049V
CENTER_NAME    = EARTH
REF_FRAME      = TEME
TIME_SYSTEM    = UTC
MEAN_ELEMENT_THEORY = SGP/SGP4

EPOCH          = 2026-04-03T12:45:04.619808
MEAN_MOTION    = 15.80809399
ECCENTRICITY   = .00001912
INCLINATION    = 97.2846
RA_OF_ASC_NODE = 114.0757
ARG_OF_PERICENTER = 98.9666
MEAN_ANOMALY   = 261.1624

EPHEMERIS_TYPE = 0
CLASSIFICATION_TYPE = U
NORAD_CAT_ID   = 68161
ELEMENT_SET_NO = 999
REV_AT_EPOCH   = 333
BSTAR          = .95321711E-3
MEAN_MOTION_DOT = .186344E-2
MEAN_MOTION_DDOT = 0

CCSDS_OMM_VERS = 2.0
CREATION_DATE  = 
ORIGINATOR     = 

OBJECT_NAME    = STARLINK-37013
OBJECT_ID      = 2026-049W
CENTER_NAME    = EARTH
REF_FRAME      = TEME
TIME_SYSTEM    = UTC
MEAN_ELEMENT_THEORY = SGP/SGP4

EPOCH          = 2026-04-03T12:37:30.320832
MEAN_MOTION    = 15.80785279
ECCENTRICITY   = .00016706
INCLINATION    = 97.2846
RA_OF_ASC_NODE = 114.0822
ARG_OF_PERICENTER = 110.2866
MEAN_ANOMALY   = 249.8582

EPHEMERIS_TYPE = 0
CLASSIFICATION_TYPE = U
NORAD_CAT_ID   = 68162
ELEMENT_SET_NO = 999
REV_AT_EPOCH   = 333
BSTAR          = .19688817E-3
MEAN_MOTION_DOT = .37682E-3
MEAN_MOTION_DDOT = 0

CCSDS_OMM_VERS = 2.0
CREATION_DATE  = 
ORIGINATOR     = 

OBJECT_NAME    = STARLINK-36958
OBJECT_ID      = 2026-049X
CENTER_NAME    = EARTH
REF_FRAME      = TEME
TIME_SYSTEM    = UTC
MEAN_ELEMENT_THEORY = SGP/SGP4

EPOCH          = 2026-04-03T14:00:03.000384
MEAN_MOTION    = 15.75144110
ECCENTRICITY   = .00012687
INCLINATION    = 97.2849
RA_OF_ASC_NODE = 114.1269
ARG_OF_PERICENTER = 107.2364
MEAN_ANOMALY   = 177.3898

EPHEMERIS_TYPE = 0
CLASSIFICATION_TYPE = U
NORAD_CAT_ID   = 68163
ELEMENT_SET_NO = 999
REV_AT_EPOCH   = 462
BSTAR          = .73574757E-3
MEAN_MOTION_DOT = .110825E-2
MEAN_MOTION_DDOT = 0

CCSDS_OMM_VERS = 2.0
CREATION_DATE  = 
ORIGINATOR     = 

OBJECT_NAME    = STARLINK-37002
OBJECT_ID      = 2026-049Y
CENTER_NAME    = EARTH
REF_FRAME      = TEME
TIME_SYSTEM    = UTC
MEAN_ELEMENT_THEORY = SGP/SGP4

EPOCH          = 2026-04-03T14:11:54.626208
MEAN_MOTION    = 15.80831388
ECCENTRICITY   = .00012121
INCLINATION    = 97.2845
RA_OF_ASC_NODE = 114.1466
ARG_OF_PERICENTER = 53.9887
MEAN_ANOMALY   = 306.1493

EPHEMERIS_TYPE = 0
CLASSIFICATION_TYPE = U
NORAD_CAT_ID   = 68164
ELEMENT_SET_NO = 999
REV_AT_EPOCH   = 334
BSTAR          = .14158538E-2
MEAN_MOTION_DOT = .280152E-2
MEAN_MOTION_DDOT = 0

CCSDS_OMM_VERS = 2.0
CREATION_DATE  = 
ORIGINATOR     = 

OBJECT_NAME    = STARLINK-36971
OBJECT_ID      = 2026-049Z
CENTER_NAME    = EARTH
REF_FRAME      = TEME
TIME_SYSTEM    = UTC
MEAN_ELEMENT_THEORY = SGP/SGP4

EPOCH          = 2026-04-03T14:00:03.000384
MEAN_MOTION    = 15.75111710
ECCENTRICITY   = .00015116
INCLINATION    = 97.2852
RA_OF_ASC_NODE = 114.1106
ARG_OF_PERICENTER = 116.0045
MEAN_ANOMALY   = 132.6330

EPHEMERIS_TYPE = 0
CLASSIFICATION_TYPE = U
NORAD_CAT_ID   = 68165
ELEMENT_SET_NO = 999
REV_AT_EPOCH   = 462
BSTAR          = .10105821E-2
MEAN_MOTION_DOT = .152814E-2
MEAN_MOTION_DDOT = 0

CCSDS_OMM_VERS = 2.0
CREATION_DATE  = 
ORIGINATOR     = 

OBJECT_NAME    = STARLINK-36273
OBJECT_ID      = 2026-049AA
CENTER_NAME    = EARTH
REF_FRAME      = TEME
TIME_SYSTEM    = UTC
MEAN_ELEMENT_THEORY = SGP/SGP4

EPOCH          = 2026-04-03T14:47:41.411328
MEAN_MOTION    = 15.75165726
ECCENTRICITY   = .00014786
INCLINATION    = 97.2853
RA_OF_ASC_NODE = 114.1133
ARG_OF_PERICENTER = 101.0548
MEAN_ANOMALY   = 259.0884

EPHEMERIS_TYPE = 0
CLASSIFICATION_TYPE = U
NORAD_CAT_ID   = 68166
ELEMENT_SET_NO = 999
REV_AT_EPOCH   = 334
BSTAR          = .97117146E-3
MEAN_MOTION_DOT = .147094E-2
MEAN_MOTION_DDOT = 0

CCSDS_OMM_VERS = 2.0
CREATION_DATE  = 
ORIGINATOR     = 

OBJECT_NAME    = STARLINK-36969
OBJECT_ID      = 2026-050A
CENTER_NAME    = EARTH
REF_FRAME      = TEME
TIME_SYSTEM    = UTC
MEAN_ELEMENT_THEORY = SGP/SGP4

EPOCH          = 2026-04-03T14:20:16.383840
MEAN_MOTION    = 15.80814812
ECCENTRICITY   = .00013507
INCLINATION    = 53.1570
RA_OF_ASC_NODE = 157.0152
ARG_OF_PERICENTER = 74.0950
MEAN_ANOMALY   = 286.0221

EPHEMERIS_TYPE = 0
CLASSIFICATION_TYPE = U
NORAD_CAT_ID   = 68167
ELEMENT_SET_NO = 999
REV_AT_EPOCH   = 441
BSTAR          = .64419031E-3
MEAN_MOTION_DOT = .128E-2
MEAN_MOTION_DDOT = 0

CCSDS_OMM_VERS = 2.0
CREATION_DATE  = 
ORIGINATOR     = 

OBJECT_NAME    = STARLINK-36984
OBJECT_ID      = 2026-050B
CENTER_NAME    = EARTH
REF_FRAME      = TEME
TIME_SYSTEM    = UTC
MEAN_ELEMENT_THEORY = SGP/SGP4

EPOCH          = 2026-04-03T14:19:11.447328
MEAN_MOTION    = 15.80870132
ECCENTRICITY   = .00014156
INCLINATION    = 53.1569
RA_OF_ASC_NODE = 157.0101
ARG_OF_PERICENTER = 37.5736
MEAN_ANOMALY   = 322.5385

EPHEMERIS_TYPE = 0
CLASSIFICATION_TYPE = U
NORAD_CAT_ID   = 68168
ELEMENT_SET_NO = 999
REV_AT_EPOCH   = 441
BSTAR          = .12804226E-2
MEAN_MOTION_DOT = .259728E-2
MEAN_MOTION_DDOT = 0

CCSDS_OMM_VERS = 2.0
CREATION_DATE  = 
ORIGINATOR     = 

OBJECT_NAME    = STARLINK-37077
OBJECT_ID      = 2026-050C
CENTER_NAME    = EARTH
REF_FRAME      = TEME
TIME_SYSTEM    = UTC
MEAN_ELEMENT_THEORY = SGP/SGP4

EPOCH          = 2026-04-03T14:18:06.798528
MEAN_MOTION    = 15.80891506
ECCENTRICITY   = .00014753
INCLINATION    = 53.1572
RA_OF_ASC_NODE = 157.0051
ARG_OF_PERICENTER = 87.5070
MEAN_ANOMALY   = 272.6121

EPHEMERIS_TYPE = 0
CLASSIFICATION_TYPE = U
NORAD_CAT_ID   = 68169
ELEMENT_SET_NO = 999
REV_AT_EPOCH   = 441
BSTAR          = .1613747E-2
MEAN_MOTION_DOT = .330581E-2
MEAN_MOTION_DDOT = 0

CCSDS_OMM_VERS = 2.0
CREATION_DATE  = 
ORIGINATOR     = 

OBJECT_NAME    = STARLINK-37003
OBJECT_ID      = 2026-050D
CENTER_NAME    = EARTH
REF_FRAME      = TEME
TIME_SYSTEM    = UTC
MEAN_ELEMENT_THEORY = SGP/SGP4

EPOCH          = 2026-04-03T12:45:59.399136
MEAN_MOTION    = 15.80834152
ECCENTRICITY   = .00017831
INCLINATION    = 53.1571
RA_OF_ASC_NODE = 157.3170
ARG_OF_PERICENTER = 60.2702
MEAN_ANOMALY   = 299.8497

EPHEMERIS_TYPE = 0
CLASSIFICATION_TYPE = U
NORAD_CAT_ID   = 68170
ELEMENT_SET_NO = 999
REV_AT_EPOCH   = 440
BSTAR          = .89444877E-3
MEAN_MOTION_DOT = .179228E-2
MEAN_MOTION_DDOT = 0

CCSDS_OMM_VERS = 2.0
CREATION_DATE  = 
ORIGINATOR     = 

OBJECT_NAME    = STARLINK-37034
OBJECT_ID      = 2026-050E
CENTER_NAME    = EARTH
REF_FRAME      = TEME
TIME_SYSTEM    = UTC
MEAN_ELEMENT_THEORY = SGP/SGP4

EPOCH          = 2026-04-03T14:15:57.023136
MEAN_MOTION    = 15.80824915
ECCENTRICITY   = .00007478
INCLINATION    = 53.1576
RA_OF_ASC_NODE = 156.9948
ARG_OF_PERICENTER = 66.9881
MEAN_ANOMALY   = 293.1220

EPHEMERIS_TYPE = 0
CLASSIFICATION_TYPE = U
NORAD_CAT_ID   = 68171
ELEMENT_SET_NO = 999
REV_AT_EPOCH   = 441
BSTAR          = .62401395E-3
MEAN_MOTION_DOT = .123967E-2
MEAN_MOTION_DDOT = 0

CCSDS_OMM_VERS = 2.0
CREATION_DATE  = 
ORIGINATOR     = 

OBJECT_NAME    = STARLINK-37031
OBJECT_ID      = 2026-050F
CENTER_NAME    = EARTH
REF_FRAME      = TEME
TIME_SYSTEM    = UTC
MEAN_ELEMENT_THEORY = SGP/SGP4

EPOCH          = 2026-04-03T12:43:49.844928
MEAN_MOTION    = 15.80879940
ECCENTRICITY   = .00015115
INCLINATION    = 53.1572
RA_OF_ASC_NODE = 157.3061
ARG_OF_PERICENTER = 71.5852
MEAN_ANOMALY   = 288.5335

EPHEMERIS_TYPE = 0
CLASSIFICATION_TYPE = U
NORAD_CAT_ID   = 68172
ELEMENT_SET_NO = 999
REV_AT_EPOCH   = 440
BSTAR          = .13641465E-2
MEAN_MOTION_DOT = .277458E-2
MEAN_MOTION_DDOT = 0

CCSDS_OMM_VERS = 2.0
CREATION_DATE  = 
ORIGINATOR     = 

OBJECT_NAME    = STARLINK-37076
OBJECT_ID      = 2026-050G
CENTER_NAME    = EARTH
REF_FRAME      = TEME
TIME_SYSTEM    = UTC
MEAN_ELEMENT_THEORY = SGP/SGP4

EPOCH          = 2026-04-03T12:42:44.769312
MEAN_MOTION    = 15.80857003
ECCENTRICITY   = .00011894
INCLINATION    = 53.1575
RA_OF_ASC_NODE = 157.3017
ARG_OF_PERICENTER = 57.7735
MEAN_ANOMALY   = 302.3403

EPHEMERIS_TYPE = 0
CLASSIFICATION_TYPE = U
NORAD_CAT_ID   = 68173
ELEMENT_SET_NO = 999
REV_AT_EPOCH   = 440
BSTAR          = .10230453E-2
MEAN_MOTION_DOT = .205952E-2
MEAN_MOTION_DDOT = 0

CCSDS_OMM_VERS = 2.0
CREATION_DATE  = 
ORIGINATOR     = 

OBJECT_NAME    = STARLINK-37078
OBJECT_ID      = 2026-050H
CENTER_NAME    = EARTH
REF_FRAME      = TEME
TIME_SYSTEM    = UTC
MEAN_ELEMENT_THEORY = SGP/SGP4

EPOCH          = 2026-04-03T14:12:42.498720
MEAN_MOTION    = 15.80876816
ECCENTRICITY   = .00012511
INCLINATION    = 53.1572
RA_OF_ASC_NODE = 156.9800
ARG_OF_PERICENTER = 129.9955
MEAN_ANOMALY   = 230.1177

EPHEMERIS_TYPE = 0
CLASSIFICATION_TYPE = U
NORAD_CAT_ID   = 68174
ELEMENT_SET_NO = 999
REV_AT_EPOCH   = 441
BSTAR          = .13769534E-2
MEAN_MOTION_DOT = .280117E-2
MEAN_MOTION_DDOT = 0

CCSDS_OMM_VERS = 2.0
CREATION_DATE  = 
ORIGINATOR     = 

OBJECT_NAME    = STARLINK-36886
OBJECT_ID      = 2026-050J
CENTER_NAME    = EARTH
REF_FRAME      = TEME
TIME_SYSTEM    = UTC
MEAN_ELEMENT_THEORY = SGP/SGP4

EPOCH          = 2026-04-03T14:11:37.942368
MEAN_MOTION    = 15.80803833
ECCENTRICITY   = .00015342
INCLINATION    = 53.1580
RA_OF_ASC_NODE = 156.9750
ARG_OF_PERICENTER = 67.9301
MEAN_ANOMALY   = 292.1885

EPHEMERIS_TYPE = 0
CLASSIFICATION_TYPE = U
NORAD_CAT_ID   = 68175
ELEMENT_SET_NO = 999
REV_AT_EPOCH   = 441
BSTAR          = .53052847E-3
MEAN_MOTION_DOT = .104956E-2
MEAN_MOTION_DDOT = 0

